1 08820U 76039A   03011.83465379 -.00000011  00000-0  10000-3 0  8955
2 08820 109.8352 128.0591 0044351 334.8640  24.9799  6.38664750367077
